[{"OBJECT_NAME":"GLOBALSTAR M095","OBJECT_ID":"2013-005F","EPOCH":"2026-03-28T11:03:12.543840","MEAN_MOTION":12.62266742,"ECCENTRICITY":9.23e-5,"INCLINATION":52.0079,"RA_OF_ASC_NODE":166.9352,"ARG_OF_PERICENTER":122.6836,"MEAN_ANOMALY":237.412,"EPHEMERIS_TYPE":0,"CLASSIFICATION_TYPE":"U","NORAD_CAT_ID":39077,"ELEMENT_SET_NO":999,"REV_AT_EPOCH":60567,"BSTAR":-0.00012161,"MEAN_MOTION_DOT":-1.26e-6,"MEAN_MOTION_DDOT":0},{"OBJECT_NAME":"GLOBALSTAR M087","OBJECT_ID":"2022-064A","EPOCH":"2026-03-28T20:52:44.922432","MEAN_MOTION":12.62267756,"ECCENTRICITY":9.21e-5,"INCLINATION":52.0003,"RA_OF_ASC_NODE":306.9779,"ARG_OF_PERICENTER":103.6812,"MEAN_ANOMALY":256.4157,"EPHEMERIS_TYPE":0,"CLASSIFICATION_TYPE":"U","NORAD_CAT_ID":52888,"ELEMENT_SET_NO":999,"REV_AT_EPOCH":18099,"BSTAR":0.00017501,"MEAN_MOTION_DOT":-7.2e-7,"MEAN_MOTION_DDOT":0}]
