GLOBALSTAR M095         
1 39077U 13005F   26087.46056185 -.00000126  00000+0 -12161-3 0  9997
2 39077  52.0079 166.9352 0000923 122.6836 237.4120 12.62266742605676
GLOBALSTAR M087         
1 52888U 22064A   26087.86996438 -.00000072  00000+0  17501-3 0  9997
2 52888  52.0003 306.9779 0000921 103.6812 256.4157 12.62267756180998
